GLOBALSTAR M035         
1 25851U 99037A   25062.87823234 -.00000055  00000+0  33978-3 0  9994
2 25851  51.9945 289.8197 0013789 167.1167 278.7061 11.04536601 84625
GLOBALSTAR M032         
1 25852U 99037B   25063.19823907  .00000011  00000+0  25026-2 0  9993
2 25852  51.9938 121.5413 0010918 351.6301   8.4315 11.19060952123083
GLOBALSTAR M051         
1 25853U 99037C   25063.30206393 -.00000044  00000+0  68577-3 0  9997
2 25853  51.9797 293.9199 0001551  50.4862 309.6085 11.42204289120425
GLOBALSTAR M030         
1 25854U 99037D   25063.37698843 -.00000098  00000+0 -48923-3 0  9993
2 25854  51.9865 106.5034 0003916 217.4721 142.5823 11.55099894138033
GLOBALSTAR M048         
1 25872U 99041A   25062.88304088 -.00000064  00000+0  16880-3 0  9997
2 25872  51.9340 225.8888 0013060   7.2501 162.9379 11.33855060113031
GLOBALSTAR M026         
1 25873U 99041B   25062.92480731 -.00000016  00000+0  17763-2 0  9990
2 25873  52.0020  48.7746 0001696  87.0790 284.7425 11.06828639136832
GLOBALSTAR M043         
1 25874U 99041C   25062.95953323 -.00000016  00000+0  15555-2 0  9993
2 25874  51.9436 329.1614 0013618 130.8170 313.6593 11.25690669111021
GLOBALSTAR M028         
1 25875U 99041D   25062.73283514 -.00000044  00000+0  36125-3 0  9996
2 25875  51.9618 147.5101 0063462 201.8963 157.9182 12.50578247176983
